1 25994U 99068A   02262.14144024  .00001543  00000-0  35243-3 0  2360
2 25994  98.1989 335.6243 0000822  64.2109 295.9177 14.57123210146473
1 25994U 99068A   02262.27877861  .00001358  00000-0  31130-3 0  2372
2 25994  98.1984 335.7598 0000919  56.9508 303.1770 14.57122892146498
1 25994U 99068A   02262.75946152  .00001363  00000-0  31250-3 0  2385
2 25994  98.1994 336.2335 0000867  64.2547 295.8738 14.57124220146567
1 25994U 99068A   02263.17147507  .00001400  00000-0  32071-3 0  2394
2 25994  98.1994 336.6390 0000874  61.1089 299.0197 14.57125538146622
1 25994U 99068A   02263.30881284  .00001373  00000-0  31466-3 0  2404
2 25994  98.1991 336.7745 0000866  63.8110 296.3172 14.57125775146647
1 25994U 99068A   02263.78949436  .00001424  00000-0  32601-3 0  2410
2 25994  98.1993 337.2477 0000852  71.8449 288.2831 14.57127431146717
1 25994U 99068A   02264.20150724  .00001364  00000-0  31265-3 0  2421
2 25994  98.1991 337.6533 0000893  66.0122 294.1153 14.57128352146773
1 25994U 99068A   02264.27017632  .00001302  00000-0  29895-3 0  2437
2 25994  98.1991 337.7209 0000887  69.0746 291.0537 14.57128245146786
1 25994U 99068A   02264.75085781  .00001143  00000-0  26367-3 0  2445
2 25994  98.1993 338.1941 0000858  66.6883 293.4389 14.57128776146857
1 25994U 99068A   02265.16287044  .00001143  00000-0  26367-3 0  2458
2 25994  98.1993 338.5997 0000858  65.4102 294.7186 14.57129753146915
1 25994U 99068A   02265.30020782  .00001073  00000-0  24798-3 0  2467
2 25994  98.1989 338.7351 0000876  63.6328 296.4947 14.57129761146931
1 25994U 99068A   02265.78088888  .00001048  00000-0  24260-3 0  2477
2 25994  98.1993 339.2085 0000864  63.2749 296.8537 14.57130657147000
1 25994U 99068A   02266.12423213  .00001035  00000-0  23966-3 0  2480
2 25994  98.1993 339.5465 0000865  62.1084 298.0202 14.57131332147055
1 25994U 99068A   02266.26156936  .00000955  00000-0  22183-3 0  2491
2 25994  98.1990 339.6818 0000880  62.5110 297.6166 14.57131281147075
1 25994U 99068A   02266.74224978  .00000957  00000-0  22238-3 0  2523
2 25994  98.1990 340.1549 0000880  61.1591 298.9696 14.57132259147147
1 25994U 99068A   02267.15426114  .00000957  00000-0  22238-3 0  2503
2 25994  98.1990 340.5604 0000880  59.8810 300.2476 14.57133083147207
1 25994U 99068A   02267.29159820  .00000957  00000-0  22238-3 0  2516
2 25994  98.1990 340.6956 0000880  59.4550 300.6735 14.57133358147224
1 25994U 99068A   02267.77227770  .00000891  00000-0  20772-3 0  2528
2 25994  98.1984 341.1687 0000817  75.7396 284.3890 14.57133962147291
1 25994U 99068A   02268.18428865  .00000852  00000-0  19900-3 0  2531
2 25994  98.1983 341.5743 0000813  78.2597 281.8687 14.57134517147354
1 25994U 99068A   02268.25295724  .00000852  00000-0  19900-3 0  2546
2 25994  98.1983 341.6419 0000813  78.0467 282.0823 14.57134640147362
1 25994U 99068A   02268.80230527  .00000718  00000-0  16935-3 0  2565
2 25994  98.1990 342.1835 0000718  64.7176 295.4097 14.57134917147448
1 25994U 99068A   02269.14564748  .00000718  00000-0  16935-3 0  2579
2 25994  98.1990 342.5214 0000718  63.6525 296.4747 14.57135440147499
1 25994U 99068A   02269.28298448  .00000697  00000-0  16474-3 0  2580
2 25994  98.1983 342.6565 0000736  70.0145 290.1135 14.57135552147510
1 25994U 99068A   02269.76366330  .00000619  00000-0  14739-3 0  2596
2 25994  98.1986 343.1299 0000713  67.5572 292.5694 14.57135886147586
1 25994U 99068A   02270.17567380  .00000549  00000-0  13178-3 0  2601
2 25994  98.1984 343.5355 0000730  67.4858 292.6405 14.57136127147643
1 25994U 99068A   02270.24434244  .00000649  00000-0  15400-3 0  2613
2 25994  98.1988 343.6029 0000648  81.4844 278.6464 14.57136739147654
1 25994U 99068A   02270.79368834  .00000689  00000-0  16279-3 0  2624
2 25994  98.1978 344.1441 0000758  66.3078 293.8171 14.57137734147739
1 25994U 99068A   02271.13703046  .00000699  00000-0  16507-3 0  2637
2 25994  98.1979 344.4819 0000753  64.9371 295.1909 14.57138293147787
1 25994U 99068A   02271.27436745  .00000607  00000-0  14466-3 0  2643
2 25994  98.1975 344.6174 0000774  67.4271 292.7009 14.57137964147800
1 25994U 99068A   02271.75504520  .00000720  00000-0  16975-3 0  2657
2 25994  98.1988 345.0916 0000838  58.8940 301.2340 14.57139181147875
1 25994U 99068A   02272.16705468  .00000755  00000-0  17740-3 0  2667
2 25994  98.1985 345.4972 0000824  57.0719 303.0574 14.57140036147935
1 25994U 99068A   02272.30439080  .00000781  00000-0  18315-3 0  2676
2 25994  98.1984 345.6324 0000797  59.6222 300.5057 14.57140324147953
1 25994U 99068A   02272.78506835  .00000708  00000-0  16699-3 0  2684
2 25994  98.1992 346.1062 0000760  62.1883 297.9393 14.57140632148022
1 25994U 99068A   02273.12840925  .00000757  00000-0  17794-3 0  2696
2 25994  98.1991 346.4440 0000732  62.9157 297.2134 14.57141439148072
1 25994U 99068A   02273.26574504  .00000751  00000-0  17649-3 0  2703
2 25994  98.1990 346.5792 0000723  64.6184 295.5085 14.57141671148097
1 25994U 99068A   02273.74642138  .00000815  00000-0  19073-3 0  2710
2 25994  98.1986 347.0522 0000721  69.7153 290.4111 14.57142811148168
1 25994U 99068A   02274.15843002  .00000816  00000-0  19104-3 0  2726
2 25994  98.1986 347.4577 0000723  68.0488 292.0787 14.57143520148229
1 25994U 99068A   02274.22709807  .00000816  00000-0  19104-3 0  2739
2 25994  98.1986 347.5253 0000723  67.8358 292.2917 14.57143638148232
1 25994U 99068A   02274.63910623  .00000674  00000-0  15956-3 0  2748
2 25994  98.1978 347.9298 0000706  72.4622 287.6624 14.57143539148292
1 25994U 99068A   02274.77644257  .00000778  00000-0  18251-3 0  2757
2 25994  98.1977 348.0648 0000733  82.4851 277.6432 14.57144248148314
1 25994U 99068A   02275.11978256  .00000788  00000-0  18473-3 0  2763
2 25994  98.1977 348.4027 0000730  81.4130 278.7155 14.57144883148369
1 25994U 99068A   02275.32578570  .00000956  00000-0  22204-3 0  2776
2 25994  98.1979 348.6054 0000689  81.1767 278.9508 14.57146081148398
1 25994U 99068A   02275.73779232  .00001104  00000-0  25484-3 0  2789
2 25994  98.1980 349.0111 0000734  90.1275 270.0003 14.57147772148452
1 25994U 99068A   02276.14979945  .00001094  00000-0  25267-3 0  2796
2 25994  98.1980 349.4166 0000739  90.0480 270.0803 14.57148649148517
1 25994U 99068A   02276.28713506  .00001094  00000-0  25267-3 0  2802
2 25994  98.1980 349.5518 0000739  89.6220 270.5063 14.57148961148537
1 25994U 99068A   02276.76780882  .00001250  00000-0  28727-3 0  2815
2 25994  98.1977 350.0244 0000733  95.3664 264.7620 14.57150834148600
1 25994U 99068A   02277.17981494  .00001237  00000-0  28433-3 0  2823
2 25994  98.1977 350.4299 0000741  96.5954 263.5329 14.57151824148667
1 25994U 99068A   02277.24848259  .00001257  00000-0  28874-3 0  2834
2 25994  98.1973 350.4979 0000737  96.8843 263.2440 14.57152065148673
1 25994U 99068A   02277.79782348  .00001153  00000-0  26576-3 0  2843
2 25994  98.1974 351.0387 0000767 106.6192 253.5083 14.57153007148755
1 25994U 99068A   02278.14116157  .00001150  00000-0  26508-3 0  2855
2 25994  98.1975 351.3766 0000763 104.4881 255.6403 14.57153839148805
1 25994U 99068A   02278.27849688  .00001088  00000-0  25135-3 0  2867
2 25994  98.1975 351.5117 0000789 105.0333 255.0952 14.57153861148824
1 25994U 99068A   02278.75916986  .00001023  00000-0  23680-3 0  2879
2 25994  98.1983 351.9854 0000753 100.1187 260.0092 14.57154584148890
1 25994U 99068A   02279.17117504  .00001017  00000-0  23549-3 0  2883
2 25994  98.1983 352.3909 0000756  99.4034 260.7250 14.57155431148952
1 25994U 99068A   02279.23984253  .00001017  00000-0  23549-3 0  2894
2 25994  98.1983 352.4585 0000756  99.1904 260.9380 14.57155577148964
1 25994U 99068A   02279.78918220  .00001017  00000-0  23549-3 0  2907
2 25994  98.1983 352.9991 0000756  97.4862 262.6422 14.57156741149044
1 25994U 99068A   02280.13251926  .00001017  00000-0  23549-3 0  2912
2 25994  98.1983 353.3370 0000756  96.4211 263.7074 14.57157469149095
1 25994U 99068A   02280.26985404  .00001017  00000-0  23549-3 0  2922
2 25994  98.1983 353.4722 0000756  95.9951 264.1334 14.57157760149113
1 25994U 99068A   02280.75052542  .00000960  00000-0  22279-3 0  2930
2 25994  98.1972 353.9458 0000717  68.0374 292.0892 14.57158633149185
1 25994U 99068A   02281.16252949  .00000984  00000-0  22825-3 0  2943
2 25994  98.1962 354.3514 0000736  59.5915 300.5375 14.57159793149245
1 25994U 99068A   02281.23119641  .00001028  00000-0  23786-3 0  2950
2 25994  98.1960 354.4191 0000698  64.2855 295.8425 14.57160131149259
1 25994U 99068A   02281.78053382  .00001165  00000-0  26836-3 0  2961
2 25994  98.1962 354.9598 0000781  54.9475 305.1798 14.57162036149337
1 25994U 99068A   02282.12386967  .00001197  00000-0  27544-3 0  2971
2 25994  98.1963 355.2976 0000765  54.2752 305.8532 14.57163055149385
1 25994U 99068A   02282.26120365  .00001366  00000-0  31279-3 0  2983
2 25994  98.1967 355.4326 0000649  60.5916 299.5390 14.57164219149400
1 25994U 99068A   02282.74187187  .00001427  00000-0  32627-3 0  2998
2 25994  98.1985 355.9070 0000824  38.2405 321.8835 14.57165838149479
1 25994U 99068A   02283.22255506 -.00002287  00000-0 -49743-3 0  3000
2 25994  98.1981 356.3806 0001887  95.0394 265.0741 14.57145882149545
1 25994U 99068A   02283.49723239 -.00040483  00000-0 -90415-2 0  3014
2 25994  98.1967 356.6502 0002476  88.8366 271.1848 14.57059359149582
1 25994U 99068A   02283.77194735 -.00040804  00000-0 -91184-2 0  3020
2 25994  98.1957 356.9196 0002442  87.5786 272.5702 14.57035990149622
1 25994U 99068A   02284.11531244 -.00033928  00000-0 -75732-2 0  3030
2 25994  98.1943 357.2566 0002002  69.2045 290.9708 14.57029261149678
1 25994U 99068A   02284.32131590 -.00028161  00000-0 -62780-2 0  3046
2 25994  98.1939 357.4593 0001447  66.2087 293.9272 14.57035099149709
1 25994U 99068A   02284.66468380 -.00027492  00000-0 -61302-2 0  3059
2 25994  98.1948 357.7972 0001486  61.8940 298.2477 14.57018209149759
